ONEWEB-0275             
1 48993U 21060AC  25156.43651530  .00000008  00000+0 -12140-4 0  9998
2 48993  87.9033 303.8704 0001767 101.4958 258.6372 13.16594843189981
ONEWEB-0276             
1 48994U 21060AD  25156.77373115  .00000077  00000+0  16792-3 0  9997
2 48994  87.9033 303.8001 0002007 105.0229 255.1124 13.16593283190044
ONEWEB-0277             
1 48995U 21060AE  25156.48241440  .00000146  00000+0  34775-3 0  9999
2 48995  87.9031 303.8944 0001789 112.3702 247.7619 13.16595948189990
ONEWEB-0278             
1 48996U 21060AF  25156.85290584  .00000069  00000+0  14814-3 0  9990
2 48996  87.9033 303.7812 0002082  95.7011 264.4358 13.16595107190175
ONEWEB-0279             
1 48997U 21060AG  25156.63281833  .00000157  00000+0  37747-3 0  9992
2 48997  87.9033 303.8212 0001661 108.6329 251.4982 13.16595882190077
ONEWEB-0280             
1 48998U 21060AH  25156.87584890  .00000050  00000+0  96708-4 0  9993
2 48998  87.9034 303.7788 0002144 104.9530 255.1838 13.16593143190042
ONEWEB-0281             
1 48999U 21060AJ  25156.42543323  .00000048  00000+0  92982-4 0  9998
2 48999  87.9034 303.8665 0001677  95.3619 264.7703 13.16594477190058
ONEWEB-0282             
1 49000U 21060AK  25156.45548392 -.00000238  00000+0 -65686-3 0  9999
2 49000  87.9026 303.8750 0001923 103.9288 256.2057 13.16594049190031
